UNKNOWN                 
1 87433U          22223.13125373  .00000970  00000+0  19603-2 0  9997
2 87433 100.2091   1.8012 0042374 308.0659  51.6646 13.36491397269442
UNKNOWN                 
1 87448U 70025    22222.08751735  .00000642  00000+0  60575-3 0  9998
2 87448 100.4471 270.9186 0068891 108.7817 252.0824 13.84790960439979
UNKNOWN                 
1 87456U 76126    22223.17076269  .00001879  00000+0  33748-3 0  9993
2 87456  65.7916  17.7512 0623025 263.6732  89.3072 13.88157590440819
UNKNOWN                 
1 87468U 93036    22220.51612826  .00007450  00000+0  82639-3 0  9999
2 87468  74.0148 158.1901 0064669 231.1176 128.4225 14.85887437298239
UNKNOWN                 
1 87491U 99025    22221.17579204  .00005365  00000+0  12187-2 0  9997
2 87491  98.6268 305.4685 0064975 310.8618  48.6958 14.55136487404258
UNKNOWN                 
1 87501U 93036    22222.34331156  .00009612  00000+0  25638-2 0  9991
2 87501  74.0322 346.8016 0024781  12.2178 347.9576 14.48335038291947
UNKNOWN                 
1 87517U 76126    22222.58121823  .00002117  00000+0  69320-3 0  9993
2 87517  65.8274 287.2437 0725418 170.1317 268.7614 13.46760724427795
UNKNOWN                 
1 87541U 70025    22222.51172837  .00000171  00000+0  42074-3 0  9991
2 87541  99.8541 113.1402 0060001 327.7162 155.7184 13.34953555419187
UNKNOWN                 
1 87553U 76126    22221.50116575  .00000976  00000+0  36705-3 0  9994
2 87553  65.6741  43.2700 0729260  47.6862 318.3666 13.42669780426689
UNKNOWN                 
1 87557U 73086    22221.61985373  .00002574  00000+0  69629-2 0  9998
2 87557 101.7628 273.2492 0083757 163.5032 196.8829 13.14394296403853
UNKNOWN                 
1 87561U 76077    22221.15907595 -.00000145  00000+0 -79110-3 0  9996
2 87561 102.1626 289.0971 0174489   4.4238  21.4755 12.32132561391987
UNKNOWN                 
1 87565U 99025    22222.85619458  .00000738  00000+0  46052-3 0  9999
2 87565  99.9175  90.9859 0180692 220.8007 137.9507 14.00678289445378
UNKNOWN                 
1 87569U 99025    22223.27032194 -.00000051  00000+0 -17854-4 0  9995
2 87569 101.8385 345.0185 0056157 133.1821 258.2168 12.68480183403844
UNKNOWN                 
1 87587U 93036    22222.19070931  .00000094  00000+0  38940-4 0  9996
2 87587  74.0240 197.6993 0020701 173.4082 186.7349 14.38953290458181
UNKNOWN                 
1 87590U 99025    22212.93254809  .00000314  00000+0  21041-3 0  9991
2 87590  98.9367 254.6428 0028363 144.8420 338.6833 14.07850295982070
UNKNOWN                 
1 87616U 76067    22222.43686970  .00000502  00000+0  18707-2 0  9998
2 87616  66.0390  24.3232 0643985 297.5488  81.9373 12.45021007384219
UNKNOWN                 
1 87624U 99025    22223.39379273  .00001270  00000+0  28418-3 0  9991
2 87624  98.7544  85.3576 0129592  40.9560 320.1282 14.53553511402335
UNKNOWN                 
1 87642U          22222.15694230  .00021340  00000+0  97651-3 0  9997
2 87642  62.2251 271.1479 0113705 320.1954  39.0843 15.14898135468267
UNKNOWN                 
1 87650U          22218.00214958  .00003523  00000+0  13322-2 0  9995
2 87650 100.2650 125.7274 0054930 165.6446 194.6307 14.31220932 11170
UNKNOWN                 
1 87656U          22222.64982296  .00011443  00000+0  23156-2 0  9999
2 87656  99.1380  17.5291 0016649  66.9197 293.3754 14.61406739822379
UNKNOWN                 
1 87664U 75052    22218.70875685 -.00000356  00000+0 -86084-3 0  9995
2 87664  99.7151 198.1585 0211681 253.7332 286.0601 13.06272898381502
UNKNOWN                 
1 87672U 93016    22221.40109343  .00000391  00000+0  20676-3 0  9998
2 87672  70.8621 104.1544 0065173 324.9916  34.6931 14.19009451450718
UNKNOWN                 
1 87681U          22222.08021543  .00000350  00000+0  45443-3 0  9993
2 87681  66.7376 100.3553 0169808 248.5957 109.6920 13.67417312434739
UNKNOWN                 
1 87690U 76126    22223.57016413  .00002939  00000+0  48109-3 0  9997
2 87690  65.7970 227.8192 0680973 297.7429  55.6169 13.79344154438042
UNKNOWN                 
1 87706U          22223.57923701  .00000864  00000+0  21599-3 0  9999
2 87706  98.5604 350.2835 0135516  40.5532  17.9855 14.48812009401140
UNKNOWN                 
1 87725U 81053    22220.97139551  .00002500  00000+0  79868-3 0  9991
2 87725  82.8974 221.5795 0031296   9.0661 351.1088 14.39107470455919
UNKNOWN                 
1 87727U 92093    22222.23594757  .00027474  00000+0  35195-2 0  9994
2 87727  70.9793 158.5725 0009319 108.3748 251.8423 14.81173116463140
UNKNOWN                 
1 87730U          22223.28918340  .00000071  00000+0  58501-4 0  9991
2 87730  82.9424  56.1707 0030390 159.4820 200.7563 13.74209627417833
UNKNOWN                 
1 87737U 99025    22222.46975046  .00000013  00000+0  58383-4 0  9992
2 87737  99.5552  93.8219 0134235 120.7092 240.7359 13.72040627436500
UNKNOWN                 
1 87764U 76126    22223.22509590  .00005153  00000+0  10688-2 0  9995
2 87764  65.6732 197.8749 0487303 323.1809  45.9889 14.06223449446089
UNKNOWN                 
1 87771U 75052    22223.26587971  .00000032  00000+0  19243-3 0  9991
2 87771 100.6861  18.4812 0119620 245.9159 112.9402 13.19079196374281
UNKNOWN                 
1 87782U 73086    22221.39496485  .00002199  00000+0  83099-2 0  9994
2 87782 102.3776 284.8572 0078731 166.8638 193.4527 12.91601142409809
UNKNOWN                 
1 87817U 68097    22223.15613334  .00045365  00000+0  15408-2 0  9990
2 87817  62.7589  16.8868 0152745  66.9295 294.7832 15.19717763503187
UNKNOWN                 
1 87843U 70025    22223.27647733  .00000951  00000+0  24258-2 0  9991
2 87843  99.6823  68.7152 0247831 329.4093  29.2763 13.10670326404087
UNKNOWN                 
1 87845U          22223.28507697  .00000985  00000+0  19819-2 0  9998
2 87845  98.8440  48.1326 0585904 171.5012 189.6555 12.84874617408389
UNKNOWN                 
1 87878U          22223.32118585  .00001010  00000+0  40979-3 0  9995
2 87878  99.2191 253.4046 0041538 210.2184 149.6600 14.29600340436507
UNKNOWN                 
1 87883U 99025    22223.47221988  .00000252  00000+0  10920-3 0  9994
2 87883  99.2107 122.1306 0296557 202.2246 156.5848 14.12421465400046
UNKNOWN                 
1 87884U 99025    22222.14594270  .00000020  00000+0  35381-4 0  9997
2 87884  98.6129   1.1520 0155543 263.6769  94.6664 14.04534409446949
UNKNOWN                 
1 87898U 99025    22221.56856284  .00004312  00000+0  15162-2 0  9994
2 87898  98.9070  90.8086 0128244 231.3390 127.6261 14.30933996452988
UNKNOWN                 
1 87934U          22223.00880994  .00000073  00000+0  62247-4 0  9994
2 87934  82.9370 120.9245 0030453 183.9357 235.7717 13.72829067436949
UNKNOWN                 
1 87942U          22221.43761679  .00009406  00000+0  92026-3 0  9992
2 87942  99.0851 200.7774 0136957  66.6515  84.6280 14.85750668464092
UNKNOWN                 
1 87972U 99025    22220.61277396  .00015022  00000+0  48072-2 0  9999
2 87972  98.8040 149.5717 0166589 359.5483   0.5524 14.32020964400731
UNKNOWN                 
1 87991U 77065    22221.95181588  .00000440  00000+0  76923-3 0  9990
2 87991  28.6252 324.0797 0927407  28.2028 336.5708 12.30087793372323
UNKNOWN                 
1 87998U 99025    22219.86158849  .00000218  00000+0  15137-3 0  9991
2 87998  98.6903 259.2674 0029064 115.8589 244.5583 14.08287854376599
UNKNOWN                 
1 89003U          22215.98386566  .00000068  00000+0  32937-4 0  9994
2 89003  74.0468 103.0779 0015131 105.1738 255.1089 14.34799413455520
UNKNOWN                 
1 89005U          22223.56041259  .00000838  00000+0  23345-3 0  9993
2 89005  97.9612 129.6464 0220618 145.3966 216.1807 14.35312172358632
UNKNOWN                 
1 89029U          22220.36193452  .00001270  00000+0  17640-3 0  9999
2 89029  98.2021  79.0780 0030108 345.9546  14.0824 14.79455777469588
UNKNOWN                 
1 89037U          22212.09726278  .00001710  00000+0  10081-2 0  9997
2 89037  98.4372 168.8382 0141455  59.5518 301.9538 14.04196257349151
UNKNOWN                 
1 89048U          22223.18609912  .00020215  00000+0  34662-2 0  9998
2 89048  99.0455 125.4477 0017742  64.7195 295.5843 14.68670651460556
UNKNOWN                 
1 89067U          22222.36139830  .00019278  00000+0  58444-3 0  9997
2 89067  80.9842 198.1197 0562169  98.4458 268.0835 14.48402366405106
UNKNOWN                 
1 89074U          22223.05822944  .00001454  00000+0  17189-2 0  9994
2 89074 100.2929 258.4631 0052762 218.8591 170.3346 13.69182280421953
UNKNOWN                 
1 89101U          22222.71870862 -.00000468  00000+0 -12723-2 0  9994
2 89101 100.3078 190.5571 0147309 313.6549  45.2421 13.03669344395850
UNKNOWN                 
1 89123U          22222.22895174  .00003155  00000+0  14828-2 0  9999
2 89123  99.0666 325.0525 0066704 140.0518 220.5593 14.19588281353740
UNKNOWN                 
1 89127U          22218.49126270  .00012947  00000+0  10224-2 0  9996
2 89127  74.0634 238.6743 0035330 245.9149 113.8341 15.00232856310113
UNKNOWN                 
1 89132U          22223.39292498  .00001545  00000+0  14600-2 0  9997
2 89132  63.4401  14.1243 3054699 320.3722  20.8963  8.73761334217755
UNKNOWN                 
1 89135U          22222.12396789  .00001752  00000+0  84493-3 0  9996
2 89135  71.0642  10.5852 0135292 307.6841  51.2074 14.15348352448988
UNKNOWN                 
1 89142U          22223.48371536  .00182860  00000+0  90406-1 0  9996
2 89142  64.7953  23.4595 3112578  82.2054 311.5778  8.76897998  5127
UNKNOWN                 
1 89146U          22223.26950402  .00000791  00000+0  20490-3 0  9991
2 89146  98.1861 156.0547 0116876 225.4562 133.7041 14.48562176451560
UNKNOWN                 
1 89161U          22223.30605899  .00002618  00000+0  35814-3 0  9996
2 89161  97.7314 248.1630 0130279 168.6443 191.7756 14.73609358366575
UNKNOWN                 
1 89171U          22220.92766378  .00071649  00000+0  33395-2 0  9993
2 89171  99.0020 109.7934 0028712 239.1148 120.7257 15.19222556371990
